{"type": "FeatureCollection", "features": [ {"type": "Feature", "properties": {"norad_id": 38552, "name": "METEOSAT-10 (MSG-3)", "group": "weather", "lat": 0.8047720024917637, "lon": 72.4387973893484, "alt_km": 35787.82826248408, "timestamp": "2025-12-09T23:33:23.489811+00:00", "meta": {"OBJECT_NAME": "METEOSAT-10 (MSG-3)", "OBJECT_ID": "2012-035B", "EPOCH": "2025-12-09T01:35:17.617632", "MEAN_MOTION": 1.0027383, "ECCENTRICITY": 8.734e-05, "INCLINATION": 4.2204, "RA_OF_ASC_NODE": 61.7307, "ARG_OF_PERICENTER": 239.048, "MEAN_ANOMALY": 161.2485, "EPHEMERIS_TYPE": 0, "CLASSIFICATION_TYPE": "U", "NORAD_CAT_ID": 38552, "ELEMENT_SET_NO": 999, "REV_AT_EPOCH": 4895, "BSTAR": 0, "MEAN_MOTION_DOT": -5e-08, "MEAN_MOTION_DDOT": 0}, "tle": {"line1": "1 38552U 12035B   25343.06617613 -.00000005  00000+0  00000+0 0  9995", "line2": "2 38552   4.2204  61.7307 0000873 239.0480 161.2485  1.00273830 48952"}}, "geometry": {"type": "Point", "coordinates": [72.4387973893484, 0.8047720024917637]}}, {"type": "Feature", "properties": {"norad_id": 38771, "name": "METOP-B", "group": "weather", "lat": 21.395534635554252, "lon": 30.55545279693395, "alt_km": 821.6136365153316, "timestamp": "2025-12-09T23:33:23.489823+00:00", "meta": {"OBJECT_NAME": "METOP-B", "OBJECT_ID": "2012-049A", "EPOCH": "2025-12-09T15:00:28.079136", "MEAN_MOTION": 14.21406802, "ECCENTRICITY": 0.00027807, "INCLINATION": 98.6803, "RA_OF_ASC_NODE": 33.6368, "ARG_OF_PERICENTER": 150.8443, "MEAN_ANOMALY": 209.289, "EPHEMERIS_TYPE": 0, "CLASSIFICATION_TYPE": "U", "NORAD_CAT_ID": 38771, "ELEMENT_SET_NO": 999, "REV_AT_EPOCH": 68633, "BSTAR": 0.00014090798, "MEAN_MOTION_DOT": 2.64e-06, "MEAN_MOTION_DDOT": 0}, "tle": {"line1": "1 38771U 12049A   25343.62532499  .00000264  00000+0  14091-3 0  9998", "line2": "2 38771  98.6803  33.6368 0002780 150.8443 209.2890 14.21406802686337"}}, "geometry": {"type": "Point", "coordinates": [30.55545279693395, 21.395534635554252]}}, {"type": "Feature", "properties": {"norad_id": 39216, "name": "INSAT-3D", "group": "weather", "lat": 1.271002511616602, "lon": -158.15031426452748, "alt_km": 35781.33899548803, "timestamp": "2025-12-09T23:33:23.489835+00:00", "meta": {"OBJECT_NAME": "INSAT-3D", "OBJECT_ID": "2013-038B", "EPOCH": "2025-12-09T14:14:51.431712", "MEAN_MOTION": 1.00271179, "ECCENTRICITY": 0.00016371, "INCLINATION": 1.437, "RA_OF_ASC_NODE": 85.0215, "ARG_OF_PERICENTER": 162.82, "MEAN_ANOMALY": 174.0005, "EPHEMERIS_TYPE": 0, "CLASSIFICATION_TYPE": "U", "NORAD_CAT_ID": 39216, "ELEMENT_SET_NO": 999, "REV_AT_EPOCH": 4517, "BSTAR": 0, "MEAN_MOTION_DOT": -3.36e-06, "MEAN_MOTION_DDOT": 0}, "tle": {"line1": "1 39216U 13038B   25343.59365083 -.00000336  00000+0  00000+0 0  9993", "line2": "2 39216   1.4370  85.0215 0001637 162.8200 174.0005  1.00271179 45177"}}, "geometry": {"type": "Point", "coordinates": [-158.15031426452748, 1.271002511616602]}}, {"type": "Feature", "properties": {"norad_id": 39260, "name": "FENGYUN 3C", "group": "weather", "lat": -34.05249883575129, "lon": -32.42036699764182, "alt_km": 851.3883970014258, "timestamp": "2025-12-09T23:33:23.489847+00:00", "meta": {"OBJECT_NAME": "FENGYUN 3C", "OBJECT_ID": "2013-052A", "EPOCH": "2025-12-09T13:32:31.045344", "MEAN_MOTION": 14.15694846, "ECCENTRICITY": 0.00141045, "INCLINATION": 98.476, "RA_OF_ASC_NODE": 321.3987, "ARG_OF_PERICENTER": 205.4618, "MEAN_ANOMALY": 154.5863, "EPHEMERIS_TYPE": 0, "CLASSIFICATION_TYPE": "U", "NORAD_CAT_ID": 39260, "ELEMENT_SET_NO": 999, "REV_AT_EPOCH": 63173, "BSTAR": 0.00013292321, "MEAN_MOTION_DOT": 2.2e-06, "MEAN_MOTION_DDOT": 0}, "tle": {"line1": "1 39260U 13052A   25343.56424821  .00000220  00000+0  13292-3 0  9993", "line2": "2 39260  98.4760 321.3987 0014104 205.4618 154.5863 14.15694846631735"}}, "geometry": {"type": "Point", "coordinates": [-32.42036699764182, -34.05249883575129]}}, {"type": "Feature", "properties": {"norad_id": 40069, "name": "METEOR-M 2", "group": "weather", "lat": -68.75769243726056, "lon": 119.0740472871641, "alt_km": 824.9345680003134, "timestamp": "2025-12-09T23:33:23.489857+00:00", "meta": {"OBJECT_NAME": "METEOR-M 2", "OBJECT_ID": "2014-037A", "EPOCH": "2025-12-09T15:37:26.560704", "MEAN_MOTION": 14.21383556, "ECCENTRICITY": 0.00048438, "INCLINATION": 98.49, "RA_OF_ASC_NODE": 321.3535, "ARG_OF_PERICENTER": 220.3545, "MEAN_ANOMALY": 139.7274, "EPHEMERIS_TYPE": 0, "CLASSIFICATION_TYPE": "U", "NORAD_CAT_ID": 40069, "ELEMENT_SET_NO": 999, "REV_AT_EPOCH": 59239, "BSTAR": 6.1953091e-05, "MEAN_MOTION_DOT": 9.3e-07, "MEAN_MOTION_DDOT": 0}, "tle": {"line1": "1 40069U 14037A   25343.65100186  .00000093  00000+0  61953-4 0  9997", "line2": "2 40069  98.4900 321.3535 0004843 220.3545 139.7274 14.21383556592392"}}, "geometry": {"type": "Point", "coordinates": [119.0740472871641, -68.75769243726056]}}, {"type": "Feature", "properties": {"norad_id": 40267, "name": "HIMAWARI-8", "group": "weather", "lat": -0.018700862866973113, "lon": -147.04510675991642, "alt_km": 35785.92371734909, "timestamp": "2025-12-09T23:33:23.489870+00:00", "meta": {"OBJECT_NAME": "HIMAWARI-8", "OBJECT_ID": "2014-060A", "EPOCH": "2025-12-09T12:31:51.169728", "MEAN_MOTION": 1.00270627, "ECCENTRICITY": 0.00012561, "INCLINATION": 0.0332, "RA_OF_ASC_NODE": 216.1327, "ARG_OF_PERICENTER": 81.2456, "MEAN_ANOMALY": 109.7586, "EPHEMERIS_TYPE": 0, "CLASSIFICATION_TYPE": "U", "NORAD_CAT_ID": 40267, "ELEMENT_SET_NO": 999, "REV_AT_EPOCH": 4085, "BSTAR": 0, "MEAN_MOTION_DOT": -2.73e-06, "MEAN_MOTION_DDOT": 0}, "tle": {"line1": "1 40267U 14060A   25343.52212002 -.00000273  00000+0  00000+0 0  9992", "line2": "2 40267   0.0332 216.1327 0001256  81.2456 109.7586  1.00270627 40859"}}, "geometry": {"type": "Point", "coordinates": [-147.04510675991642, -0.018700862866973113]}}, {"type": "Feature", "properties": {"norad_id": 40367, "name": "FENGYUN 2G", "group": "weather", "lat": 5.125974572931057, "lon": 171.90674103828016, "alt_km": 35789.79020215679, "timestamp": "2025-12-09T23:33:23.489882+00:00", "meta": {"OBJECT_NAME": "FENGYUN 2G", "OBJECT_ID": "2014-090A", "EPOCH": "2025-12-08T17:30:10.330272", "MEAN_MOTION": 1.00265504, "ECCENTRICITY": 0.0003085, "INCLINATION": 5.1581, "RA_OF_ASC_NODE": 75.1439, "ARG_OF_PERICENTER": 197.6958, "MEAN_ANOMALY": 167.0613, "EPHEMERIS_TYPE": 0, "CLASSIFICATION_TYPE": "U", "NORAD_CAT_ID": 40367, "ELEMENT_SET_NO": 999, "REV_AT_EPOCH": 4009, "BSTAR": 0, "MEAN_MOTION_DOT": -3e-06, "MEAN_MOTION_DDOT": 0}, "tle": {"line1": "1 40367U 14090A   25342.72928623 -.00000300  00000+0  00000+0 0  9991", "line2": "2 40367   5.1581  75.1439 0003085 197.6958 167.0613  1.00265504 40092"}}, "geometry": {"type": "Point", "coordinates": [171.90674103828016, 5.125974572931057]}}, {"type": "Feature", "properties": {"norad_id": 40732, "name": "METEOSAT-11 (MSG-4)", "group": "weather", "lat": 0.4761125415911643, "lon": 81.62611106459119, "alt_km": 35789.02302007258, "timestamp": "2025-12-09T23:33:23.489895+00:00", "meta": {"OBJECT_NAME": "METEOSAT-11 (MSG-4)", "OBJECT_ID": "2015-034A", "EPOCH": "2025-12-09T05:03:28.023264", "MEAN_MOTION": 1.00266394, "ECCENTRICITY": 9.7e-05, "INCLINATION": 2.7265, "RA_OF_ASC_NODE": 72.0117, "ARG_OF_PERICENTER": 121.8112, "MEAN_ANOMALY": 329.5993, "EPHEMERIS_TYPE": 0, "CLASSIFICATION_TYPE": "U", "NORAD_CAT_ID": 40732, "ELEMENT_SET_NO": 999, "REV_AT_EPOCH": 531, "BSTAR": 0, "MEAN_MOTION_DOT": 6.3e-07, "MEAN_MOTION_DDOT": 0}, "tle": {"line1": "1 40732U 15034A   25343.21074101  .00000063  00000+0  00000+0 0  9999", "line2": "2 40732   2.7265  72.0117 0000970 121.8112 329.5993  1.00266394  5310"}}, "geometry": {"type": "Point", "coordinates": [81.62611106459119, 0.4761125415911643]}}, {"type": "Feature", "properties": {"norad_id": 41105, "name": "ELEKTRO-L 2", "group": "weather", "lat": -1.592122504301821, "lon": 57.91592316695183, "alt_km": 35799.76415109122, "timestamp": "2025-12-09T23:33:23.489908+00:00", "meta": {"OBJECT_NAME": "ELEKTRO-L 2", "OBJECT_ID": "2015-074A", "EPOCH": "2025-12-09T01:31:10.511904", "MEAN_MOTION": 1.00271905, "ECCENTRICITY": 0.00038363, "INCLINATION": 6.2161, "RA_OF_ASC_NODE": 72.8685, "ARG_OF_PERICENTER": 198.9202, "MEAN_ANOMALY": 174.5582, "EPHEMERIS_TYPE": 0, "CLASSIFICATION_TYPE": "U", "NORAD_CAT_ID": 41105, "ELEMENT_SET_NO": 999, "REV_AT_EPOCH": 3660, "BSTAR": 0, "MEAN_MOTION_DOT": -1.16e-06, "MEAN_MOTION_DDOT": 0}, "tle": {"line1": "1 41105U 15074A   25343.06331611 -.00000116  00000+0  00000+0 0  9993", "line2": "2 41105   6.2161  72.8685 0003836 198.9202 174.5582  1.00271905 36608"}}, "geometry": {"type": "Point", "coordinates": [57.91592316695183, -1.592122504301821]}}, {"type": "Feature", "properties": {"norad_id": 41752, "name": "INSAT-3DR", "group": "weather", "lat": 0.07710097002653934, "lon": 146.1751754491835, "alt_km": 35820.72833425658, "timestamp": "2025-12-09T23:33:23.489938+00:00", "meta": {"OBJECT_NAME": "INSAT-3DR", "OBJECT_ID": "2016-054A", "EPOCH": "2025-12-09T13:55:35.649408", "MEAN_MOTION": 1.00270371, "ECCENTRICITY": 0.00145029, "INCLINATION": 0.0843, "RA_OF_ASC_NODE": 86.6157, "ARG_OF_PERICENTER": 183.633, "MEAN_ANOMALY": 91.2251, "EPHEMERIS_TYPE": 0, "CLASSIFICATION_TYPE": "U", "NORAD_CAT_ID": 41752, "ELEMENT_SET_NO": 999, "REV_AT_EPOCH": 3391, "BSTAR": 0, "MEAN_MOTION_DOT": -7.4e-07, "MEAN_MOTION_DDOT": 0}, "tle": {"line1": "1 41752U 16054A   25343.58027372 -.00000074  00000+0  00000+0 0  9996", "line2": "2 41752   0.0843  86.6157 0014502 183.6330  91.2251  1.00270371 33912"}}, "geometry": {"type": "Point", "coordinates": [146.1751754491835, 0.07710097002653934]}}]}